KUIPER-00112            
1 65150U 25171U   26003.61508287  .00009615  00000+0  12887-2 0  9999
2 65150  51.9031  83.3524 0008480 306.2285  53.7893 14.79908159 23282
KUIPER-00114            
1 65151U 25171V   26003.69474100  .00009550  00000+0  12799-2 0  9994
2 65151  51.8995 103.0115 0005313 248.8138 111.2257 14.79929504 23019
KUIPER-00115            
1 65152U 25171W   26003.97285564  .00002006  00000+0  29207-3 0  9992
2 65152  51.9019  94.2640 0009028 275.8987  84.0946 14.79938776 23160
KUIPER-00116            
1 65153U 25171X   26003.66359095  .00006369  00000+0  86270-3 0  9999
2 65153  51.9001 100.6736 0009165 235.8379 124.1715 14.79965834 23045
KUIPER-00118            
1 65154U 25171Y   26003.99854602 -.00004299  00000+0 -53498-3 0  9998
2 65154  51.9010 101.6481 0000363  60.2037 299.8961 14.79958057 23060
KUIPER-00119            
1 65155U 25171Z   26003.60693873  .00008362  00000+0  11234-2 0  9992
2 65155  51.9007  90.9641 0007456 269.1287  90.8821 14.79965518 23178
KUIPER-00120            
1 65762U 25217A   26004.14751282  .00007518  00000+0  10970-2 0  9994
2 65762  51.9006 337.4392 0003422  90.6125 269.5228 14.76570844 15190
KUIPER-00132            
1 65763U 25217B   26004.12479354  .00066953  00000+0  17699-2 0  9993
2 65763  51.8635 316.4277 0008500  91.1227 269.0733 15.37760535 15482
